{
  "type": "FeatureCollection",
  "features": [
    {
      "type": "Feature",
      "properties": {
        "norad_id": 66909,
        "name": "SILVERSAT",
        "group": "stations",
        "lat": 8.78026813229431,
        "lon": 86.39513260483893,
        "alt_km": 405.5161322169679,
        "timestamp": "2025-12-25T09:48:51.040516+00:00",
        "meta_object_name": "SILVERSAT",
        "meta_object_id": "1998-067XV",
        "meta_epoch": "2025-12-24T12:08:54.950784",
        "meta_mean_motion": 15.53202951,
        "meta_eccentricity": 0.00038249,
        "meta_inclination": 51.631,
        "meta_ra_of_asc_node": 83.8633,
        "meta_arg_of_pericenter": 300.8028,
        "meta_mean_anomaly": 59.2585,
        "meta_ephemeris_type": 0,
        "meta_classification_type": "U",
        "meta_norad_cat_id": 66909,
        "meta_element_set_no": 999,
        "meta_rev_at_epoch": 344,
        "meta_bstar": 0.0011617624,
        "meta_mean_motion_dot": 0.00074602,
        "meta_mean_motion_ddot": 0,
        "tle_line1": "1 66909U 98067XV  25358.50619156  .00074602  00000+0  11618-2 0  9993",
        "tle_line2": "2 66909  51.6310  83.8633 0003824 300.8028  59.2585 15.53202951  3445"
      },
      "geometry": {
        "type": "Point",
        "coordinates": [
          86.39513260483893,
          8.78026813229431
        ]
      }
    },
    {
      "type": "Feature",
      "properties": {
        "norad_id": 66910,
        "name": "1998-067XW",
        "group": "stations",
        "lat": 15.877063664076616,
        "lon": 92.36969541930291,
        "alt_km": 406.34938824672645,
        "timestamp": "2025-12-25T09:48:51.040561+00:00",
        "meta_object_name": "1998-067XW",
        "meta_object_id": "1998-067XW",
        "meta_epoch": "2025-12-24T15:11:47.467392",
        "meta_mean_motion": 15.53149596,
        "meta_eccentricity": 0.00038741,
        "meta_inclination": 51.6312,
        "meta_ra_of_asc_node": 83.2108,
        "meta_arg_of_pericenter": 273.1727,
        "meta_mean_anomaly": 86.882,
        "meta_ephemeris_type": 0,
        "meta_classification_type": "U",
        "meta_norad_cat_id": 66910,
        "meta_element_set_no": 999,
        "meta_rev_at_epoch": 346,
        "meta_bstar": 0.0010215807,
        "meta_mean_motion_dot": 0.00065339,
        "meta_mean_motion_ddot": 0,
        "tle_line1": "1 66910U 98067XW  25358.63318828  .00065339  00000+0  10216-2 0  9991",
        "tle_line2": "2 66910  51.6312  83.2108 0003874 273.1727  86.8820 15.53149596  3468"
      },
      "geometry": {
        "type": "Point",
        "coordinates": [
          92.36969541930291,
          15.877063664076616
        ]
      }
    },
    {
      "type": "Feature",
      "properties": {
        "norad_id": 66911,
        "name": "1998-067XX",
        "group": "stations",
        "lat": 31.899476824041308,
        "lon": 108.85048055128367,
        "alt_km": 402.69669474418333,
        "timestamp": "2025-12-25T09:48:51.040584+00:00",
        "meta_object_name": "1998-067XX",
        "meta_object_id": "1998-067XX",
        "meta_epoch": "2025-12-24T22:49:37.454880",
        "meta_mean_motion": 15.53703475,
        "meta_eccentricity": 0.0003529,
        "meta_inclination": 51.6305,
        "meta_ra_of_asc_node": 81.585,
        "meta_arg_of_pericenter": 283.5602,
        "meta_mean_anomaly": 76.4995,
        "meta_ephemeris_type": 0,
        "meta_classification_type": "U",
        "meta_norad_cat_id": 66911,
        "meta_element_set_no": 999,
        "meta_rev_at_epoch": 350,
        "meta_bstar": 0.0011925,
        "meta_mean_motion_dot": 0.00078033,
        "meta_mean_motion_ddot": 0,
        "tle_line1": "1 66911U 98067XX  25358.95112795  .00078033  00000+0  11925-2 0  9995",
        "tle_line2": "2 66911  51.6305  81.5850 0003529 283.5602  76.4995 15.53703475  3505"
      },
      "geometry": {
        "type": "Point",
        "coordinates": [
          108.85048055128367,
          31.899476824041308
        ]
      }
    },
    {
      "type": "Feature",
      "properties": {
        "norad_id": 66912,
        "name": "1998-067XY",
        "group": "stations",
        "lat": -24.04789056684419,
        "lon": 58.752146062915315,
        "alt_km": 410.93625929562586,
        "timestamp": "2025-12-25T09:48:51.040596+00:00",
        "meta_object_name": "1998-067XY",
        "meta_object_id": "1998-067XY",
        "meta_epoch": "2025-12-24T12:19:04.376640",
        "meta_mean_motion": 15.52269671,
        "meta_eccentricity": 0.00038943,
        "meta_inclination": 51.6319,
        "meta_ra_of_asc_node": 83.9109,
        "meta_arg_of_pericenter": 289.4763,
        "meta_mean_anomaly": 70.5806,
        "meta_ephemeris_type": 0,
        "meta_classification_type": "U",
        "meta_norad_cat_id": 66912,
        "meta_element_set_no": 999,
        "meta_rev_at_epoch": 343,
        "meta_bstar": 0.00087040154,
        "meta_mean_motion_dot": 0.00053773,
        "meta_mean_motion_ddot": 0,
        "tle_line1": "1 66912U 98067XY  25358.51324510  .00053773  00000+0  87040-3 0  9994",
        "tle_line2": "2 66912  51.6319  83.9109 0003894 289.4763  70.5806 15.52269671  3434"
      },
      "geometry": {
        "type": "Point",
        "coordinates": [
          58.752146062915315,
          -24.04789056684419
        ]
      }
    }
  ]
}